NORAD_CAT_ID,OBJECT_NAME,OBJECT_TYPE,EPOCH,MEAN_MOTION,ECCENTRICITY,INCLINATION,RA_OF_ASC_NODE,ARG_OF_PERICENTER,MEAN_ANOMALY,BSTAR,MEAN_MOTION_DOT,MEAN_MOTION_DDOT,TLE_LINE0,TLE_LINE1,TLE_LINE2,SEMIMAJOR_AXIS,PERIOD,APOGEE,PERIGEE,DECAYED
51461.0,STARLINK-3181,PAYLOAD,2022-03-15 22:00:00,15.53878178,0.0001239,53.2176,334.4835,54.7822,313.6322,-0.011926,-0.00714689,0.0,0 STARLINK-3181,1 51461U 22010F   22074.91667824 -.00714689  00000-0 -11926-1 0  9997,2 51461  53.2176 334.4835 0001239  54.7822 313.6322 15.53878178  7624,6783.553000000001,92.671,406.258,404.577,0.0
51461.0,STARLINK-3181,PAYLOAD,2022-03-16 14:00:01,15.528572,0.0001252,53.2173,331.2798,64.0378,74.5628,-0.01235,-0.00713135,0.0,0 STARLINK-3181,1 51461U 22010F   22075.58334491 -.00713135  00000-0 -12350-1 0  9999,2 51461  53.2173 331.2798 0001252  64.0378  74.5628 15.52857200  3696,6786.526,92.732,409.24,407.541,0.0
51461.0,STARLINK-3181,PAYLOAD,2022-03-16 20:00:01,15.52475558,0.0001353,53.2177,330.0811,51.131,45.6561,-0.012545,-0.00714324,0.0,0 STARLINK-3181,1 51461U 22010F   22075.83334491 -.00714324  00000-0 -12545-1 0  9994,2 51461  53.2177 330.0811 0001353  51.1310  45.6561 15.52475558  3695,6787.638000000001,92.755,410.421,408.584,0.0
51461.0,STARLINK-3181,PAYLOAD,2022-03-17 06:00:00,15.51838777,0.0001218,53.2171,328.0839,82.2419,184.0908,-0.012854,-0.00724307,0.0,0 STARLINK-3181,1 51461U 22010F   22076.25001157 -.00724307  00000-0 -12854-1 0  9996,2 51461  53.2171 328.0839 0001218  82.2419 184.0908 15.51838777  7839,6789.495,92.793,412.186,410.533,0.0
51461.0,STARLINK-3181,PAYLOAD,2022-03-17 14:00:01,15.51325109,0.0001144,53.2173,326.4853,68.2176,261.0652,-0.01298,-0.00709401,0.0,0 STARLINK-3181,1 51461U 22010F   22076.58334491 -.00709401  00000-0 -12980-1 0  9990,2 51461  53.2173 326.4853 0001144  68.2176 261.0652 15.51325109  3693,6790.993,92.824,413.635,412.081,0.0
51461.0,STARLINK-3181,PAYLOAD,2022-03-17 22:00:00,15.50818019,0.0001215,53.2175,324.8914,58.8974,332.7182,-0.013306,-0.0072286999999999,0.0,0 STARLINK-3181,1 51461U 22010F   22076.91667824 -.00722870  00000-0 -13306-1 0  9994,2 51461  53.2175 324.8914 0001215  58.8974 332.7182 15.50818019  3695,6792.473000000001,92.854,415.164,413.513,0.0
51461.0,STARLINK-3181,PAYLOAD,2022-03-18 08:00:01,15.50175168,0.0001306,53.2172,322.8978,67.6855,130.9896,-0.013453,-0.00714894,0.0,0 STARLINK-3181,1 51461U 22010F   22077.33334491 -.00714894  00000-0 -13453-1 0  9992,2 51461  53.2172 322.8978 0001306  67.6855 130.9896 15.50175168  8008,6794.351,92.893,417.104,415.329,0.0
51461.0,STARLINK-3181,PAYLOAD,2022-03-18 14:00:01,15.49798043,0.0001298,53.2172,321.702,66.8608,87.5872,-0.013807,-0.0072326,0.0,0 STARLINK-3181,1 51461U 22010F   22077.58334491 -.00723260  00000-0 -13807-1 0  9999,2 51461  53.2172 321.7020 0001298  66.8608  87.5872 15.49798043  3727,6795.453,92.915,418.2,416.436,0.0
51461.0,STARLINK-3181,PAYLOAD,2022-03-18 22:00:00,15.4928547,0.0001379,53.2173,320.1117,67.7687,147.1758,-0.013964,-0.00718673,0.0,0 STARLINK-3181,1 51461U 22010F   22077.91667824 -.00718673  00000-0 -13964-1 0  9991,2 51461  53.2173 320.1117 0001379  67.7687 147.1758 15.49285470  3771,6796.9519999999975,92.946,419.754,417.88,0.0
51461.0,STARLINK-3181,PAYLOAD,2022-03-19 02:00:01,15.49030297,0.0001293,53.2175,319.3168,52.8015,12.2257,-0.014085,-0.00718392,0.0,0 STARLINK-3181,1 51461U 22010F   22078.08335648 -.00718392  00000-0 -14085-1 0  9999,2 51461  53.2175 319.3168 0001293  52.8015  12.2257 15.49030297  8129,6797.699000000001,92.961,420.442,418.685,0.0
51461.0,STARLINK-3181,PAYLOAD,2022-03-19 14:00:01,15.48265348,0.0001196,53.2174,316.9296,66.0471,268.0531,-0.014467,-0.0071823999999999,0.0,0 STARLINK-3181,1 51461U 22010F   22078.58334491 -.00718240  00000-0 -14467-1 0  9995,2 51461  53.2174 316.9296 0001196  66.0471 268.0531 15.48265348  3697,6799.937,93.007,422.616,420.989,0.0
51461.0,STARLINK-3181,PAYLOAD,2022-03-19 22:00:01,15.47758398,0.0001345,53.2176,315.3431,50.7732,342.0474,-0.014828,-0.00722842,0.0,0 STARLINK-3181,1 51461U 22010F   22078.91668981 -.00722842  00000-0 -14828-1 0  9990,2 51461  53.2176 315.3431 0001345  50.7732 342.0474 15.47758398  3712,6801.422,93.038,424.202,422.372,0.0
51461.0,STARLINK-3181,PAYLOAD,2022-03-20 06:00:00,15.47142622,0.0001145,53.2171,313.755,51.2923,39.5744,-0.01226,-0.00586982,0.0,0 STARLINK-3181,1 51461U 22010F   22079.25001157 -.00586982  00000-0 -12260-1 0  9995,2 51461  53.2171 313.7550 0001145  51.2923  39.5744 15.47142622  8302,6803.227,93.075,425.871,424.31300000000016,0.0
51461.0,STARLINK-3181,PAYLOAD,2022-03-20 12:00:00,15.46863554,0.0001223,53.2174,312.5648,55.654,348.2813,-0.015206,-0.00718769,0.0,0 STARLINK-3181,1 51461U 22010F   22079.50001157 -.00718769  00000-0 -15206-1 0  9996,2 51461  53.2174 312.5648 0001223  55.6540 348.2813 15.46863554  8344,6804.045,93.092,426.742,425.078,0.0
51461.0,STARLINK-3181,PAYLOAD,2022-03-20 14:00:01,15.46737983,0.0001375999999999,53.2174,312.1683,58.7879,89.4474,-0.01535,-0.00722168,0.0,0 STARLINK-3181,1 51461U 22010F   22079.58334491 -.00722168  00000-0 -15350-1 0  9992,2 51461  53.2174 312.1683 0001376  58.7879  89.4474 15.46737983  3682,6804.413000000001,93.099,427.214,425.342,0.0
51461.0,STARLINK-3181,PAYLOAD,2022-03-20 22:00:01,15.46226285,0.0001544,53.2175,310.5854,54.4276,150.6915,-0.015558,-0.00719321,0.0,0 STARLINK-3181,1 51461U 22010F   22079.91668981 -.00719321  00000-0 -15558-1 0  9990,2 51461  53.2175 310.5854 0001544  54.4276 150.6915 15.46226285  3708,6805.9140000000025,93.13,428.83,426.728,0.0
51461.0,STARLINK-3181,PAYLOAD,2022-03-21 14:00:01,15.45205881,0.0001273,53.2175,307.4179,66.8738,249.9833,-0.016086,-0.00718048,0.0,0 STARLINK-3181,1 51461U 22010F   22080.58334491 -.00718048  00000-0 -16086-1 0  9993,2 51461  53.2175 307.4179 0001273  66.8738 249.9833 15.45205881  8504,6808.91,93.191,431.642,429.908,0.0
51461.0,STARLINK-3181,PAYLOAD,2022-03-21 22:00:00,15.44698919,0.0001321,53.2174,305.8389,53.872,317.9643,-0.016496,-0.00723237,0.0,0 STARLINK-3181,1 51461U 22010F   22080.91667824 -.00723237  00000-0 -16496-1 0  9990,2 51461  53.2174 305.8389 0001321  53.8720 317.9643 15.44698919  3696,6810.4,93.222,433.165,431.365,0.0
51461.0,STARLINK-3181,PAYLOAD,2022-03-22 14:00:01,15.43677462,0.0001305,53.2174,302.6785,64.7882,55.174,-0.016998,-0.00719956,0.0,0 STARLINK-3181,1 51461U 22010F   22081.58334491 -.00719956  00000-0 -16998-1 0  9995,2 51461  53.2174 302.6785 0001305  64.7882  55.1740 15.43677462  8663,6813.404,93.284,436.158,434.38,0.0
51461.0,STARLINK-3181,PAYLOAD,2022-03-22 22:00:01,15.43167114,0.0001554,53.2172,301.1031,53.3222,119.8466,-0.01729,-0.0071979,0.0,0 STARLINK-3181,1 51461U 22010F   22081.91668981 -.00719790  00000-0 -17290-1 0  9998,2 51461  53.2172 301.1031 0001554  53.3222 119.8466 15.43167114  3696,6814.906,93.315,437.83,435.712,0.0
51461.0,STARLINK-3181,PAYLOAD,2022-03-23 14:00:01,15.42146427,0.0001306,53.2175,297.95,70.8462,206.7072,-0.017834,-0.00717417,0.0,0 STARLINK-3181,1 51461U 22010F   22082.58334491 -.00717417  00000-0 -17834-1 0  9996,2 51461  53.2175 297.9500 0001306  70.8462 206.7072 15.42146427  8818,6817.913000000001,93.376,440.668,438.887,0.0
51461.0,STARLINK-3181,PAYLOAD,2022-03-23 22:00:00,15.41638208,0.0001345,53.2175,296.3784,59.7168,269.1397,-0.01825,-0.00721403,0.0,0 STARLINK-3181,1 51461U 22010F   22082.91667824 -.00721403  00000-0 -18250-1 0  9995,2 51461  53.2175 296.3784 0001345  59.7168 269.1397 15.41638208  3682,6819.411,93.407,442.193,440.359,0.0
51461.0,STARLINK-3181,PAYLOAD,2022-03-24 14:00:01,15.40616396,0.0001278,53.2176,293.2326,60.7674,8.8617,-0.018769,-0.00717314,0.0,0 STARLINK-3181,1 51461U 22010F   22083.58334491 -.00717314  00000-0 -18769-1 0  9991,2 51461  53.2176 293.2326 0001278  60.7674   8.8617 15.40616396  3675,6822.426,93.469,445.163,443.419,0.0
51461.0,STARLINK-3181,PAYLOAD,2022-03-24 22:00:00,15.4010816,0.0001517,53.2176,291.6646,50.3507,68.743,-0.019187,-0.00720756,0.0,0 STARLINK-3181,1 51461U 22010F   22083.91667824 -.00720756  00000-0 -19187-1 0  9996,2 51461  53.2176 291.6646 0001517  50.3507  68.7430 15.40108160  3693,6823.927,93.5,446.827,444.757,0.0
51461.0,STARLINK-3181,PAYLOAD,2022-03-25 00:00:02,15.39976096,0.0001530999999999,53.2176,291.2723,55.9395,165.4909,-0.019044,-0.00712884,0.0,0 STARLINK-3181,1 51461U 22010F   22084.00002315 -.00712884  00000-0 -19044-1 0  9990,2 51461  53.2176 291.2723 0001531  55.9395 165.4909 15.39976096  9036,6824.316999999999,93.508,447.227,445.137,0.0
51461.0,STARLINK-3181,PAYLOAD,2022-03-25 14:00:01,15.39087305,0.000152,53.2176,288.5262,57.6034,158.5857,-0.019762,-0.00717922,0.0,0 STARLINK-3181,1 51461U 22010F   22084.58334491 -.00717922  00000-0 -19762-1 0  9991,2 51461  53.2176 288.5262 0001520  57.6034 158.5857 15.39087305  3675,6826.944,93.562,449.847,447.771,0.0
51461.0,STARLINK-3181,PAYLOAD,2022-03-25 20:00:01,15.38704228,0.0001706999999999,53.2174,287.3528,45.9671,116.0002,-0.020024,-0.00718317,0.0,0 STARLINK-3181,1 51461U 22010F   22084.83334491 -.00718317  00000-0 -20024-1 0  9991,2 51461  53.2174 287.3528 0001707  45.9671 116.0002 15.38704228  9169,6828.0769999999975,93.585,451.108,448.776,0.0
51461.0,STARLINK-3181,PAYLOAD,2022-03-25 22:00:01,15.38576925,0.0001615,53.2177,286.9615,50.2228,213.6577,-0.020104,-0.00718171,0.0,0 STARLINK-3181,1 51461U 22010F   22084.91668981 -.00718171  00000-0 -20104-1 0  9991,2 51461  53.2177 286.9615 0001615  50.2228 213.6577 15.38576925  3682,6828.454000000002,93.593,451.421,449.216,0.0
51461.0,STARLINK-3181,PAYLOAD,2022-03-26 14:00:01,15.37517284,0.0001463,53.2172,283.8293,55.2327,302.0227,-0.019093,-0.00662875,0.0,0 STARLINK-3181,1 51461U 22010F   22085.58334491 -.00662875  00000-0 -19093-1 0  9995,2 51461  53.2172 283.8293 0001463  55.2327 302.0227 15.37517284  3644,6831.590999999999,93.657,454.455,452.456,0.0
